{"type":"Feature","properties":{"nome":"Minas Gerais"},"geometry":{"type":"Polygon","coordinates":[[[-44.20903,-14.23726],[-44.20911,-14.2467],[-44.20127,-14.25451],[-44.18291,-14.25826],[-44.17329,-14.26691],[-44.16547,-14.26896],[-44.15999,-14.25766],[-44.13725,-14.26418],[-44.13597,-14.27493],[-44.1436,-14.27852],[-44.1356,-14.28222],[-44.11258,-14.25876],[-44.10727,-14.25915],[-44.09938,-14.27349],[-44.08691,-14.26846],[-44.08827,-14.27811],[-44.08239,-14.27547],[-44.08244,-14.26903],[-44.07444,-14.27067],[-44.07794,-14.27819],[-44.07338,-14.2857],[-44.06841,-14.27976],[-44.06133,-14.2824],[-44.05741,-14.27764],[-44.05713,-14.28429],[-44.04152,-14.28625],[-44.03841,-14.28233],[-44.03461,-14.28906],[-44.02574,-14.27663],[-44.01539,-14.27654],[-44.01547,-14.27158],[-43.99763,-14.26543],[-43.98635,-14.26758],[-43.99058,-14.27263],[-43.98259,-14.2758],[-43.98083,-14.28218],[-43.96957,-14.27405],[-43.96191,-14.29104],[-43.95533,-14.29222],[-43.95612,-14.29975],[-43.95093,-14.29003],[-43.94628,-14.28999],[-43.94213,-14.30513],[-43.93505,-14.29571],[-43.92641,-14.3057],[-43.92386,-14.29601],[-43.91638,-14.29596],[-43.91157,-14.30508],[-43.91097,-14.2977],[-43.90525,-14.30034],[-43.90441,-14.29364],[-43.89247,-14.30105],[-43.89194,-14.29332],[-43.89032,-14.30663],[-43.88137,-14.30745],[-43.88091,-14.31183],[-43.86152,-14.3129],[-43.85269,-14.30797],[-43.85544,-14.31807],[-43.84671,-14.31313],[-43.84721,-14.32177],[-43.83613,-14.31118],[-43.82632,-14.31621],[-43.81899,-14.31224],[-43.8223,-14.32306],[-43.81531,-14.32068],[-43.8148,-14.32599],[-43.80864,-14.32551],[-43.80007,-14.33786],[-43.78317,-14.33927],[-43.81937,-14.38934],[-43.82705,-14.42895],[-43.87482,-14.52458],[-43.88129,-14.5624],[-43.87716,-14.56337],[-43.88719,-14.58317],[-43.88263,-14.58674],[-43.886,-14.59569],[-43.88297,-14.59921],[-43.88138,-14.59014],[-43.87672,-14.59083],[-43.87688,-14.60924],[-43.87005,-14.61286],[-43.87443,-14.61447],[-43.87103,-14.62214],[-43.88174,-14.62947],[-43.87461,-14.6368],[-43.88577,-14.63546],[-43.87713,-14.64036],[-43.88369,-14.64299],[-43.87927,-14.64611],[-43.88349,-14.65326],[-43.8791,-14.65806],[-43.87324,-14.65362],[-43.87188,-14.66361],[-43.86329,-14.66234],[-43.85919,-14.67433],[-43.84685,-14.67214],[-43.80049,-14.68734],[-43.78565,-14.68575],[-43.77615,-14.69223],[-43.76451,-14.69211],[-43.7555,-14.70087],[-43.72327,-14.69956],[-43.71222,-14.71502],[-43.7196,-14.72093],[-43.71985,-14.72957],[-43.70971,-14.73042],[-43.68661,-14.7217],[-43.69023,-14.72729],[-43.68107,-14.73222],[-43.67322,-14.72639],[-43.67099,-14.7369],[-43.65699,-14.74578],[-43.62999,-14.75039],[-43.61123,-14.76058],[-43.5806,-14.75085],[-43.57377,-14.7652],[-43.53716,-14.78354],[-43.53393,-14.78875],[-43.53919,-14.80577],[-43.53138,-14.81533],[-43.52524,-14.81402],[-43.52121,-14.80594],[-43.50974,-14.80763],[-43.51115,-14.79661],[-43.49846,-14.79741],[-43.49425,-14.79081],[-43.47836,-14.79208],[-43.46969,-14.78738],[-43.46872,-14.77952],[-43.48124,-14.76793],[-43.47528,-14.76224],[-43.46283,-14.76592],[-43.45625,-14.75778],[-43.46126,-14.74626],[-43.44582,-14.73672],[-43.43488,-14.72307],[-43.42815,-14.7264],[-43.4253,-14.72001],[-43.41468,-14.72427],[-43.39902,-14.71025],[-43.34649,-14.6961],[-43.33049,-14.68016],[-43.31966,-14.67799],[-43.31122,-14.66978],[-43.28831,-14.67615],[-43.28067,-14.66623],[-43.26607,-14.66152],[-43.24504,-14.65654],[-43.22894,-14.66055],[-43.20765,-14.65839],[-43.19869,-14.64966],[-43.18125,-14.66095],[-43.17634,-14.65058],[-43.15149,-14.66637],[-43.12707,-14.66638],[-43.1163,-14.67889],[-43.11113,-14.67904],[-43.10802,-14.6732],[-43.1011,-14.67553],[-43.08366,-14.69823],[-43.06638,-14.68059],[-43.05566,-14.69097],[-43.03666,-14.6831],[-43.01062,-14.70163],[-43.00279,-14.69633],[-42.98535,-14.70227],[-42.97732,-14.69842],[-42.95268,-14.70844],[-42.93887,-14.70806],[-42.9374,-14.72048],[-42.92497,-14.7339],[-42.92705,-14.74418],[-42.91696,-14.74752],[-42.91219,-14.74451],[-42.90588,-14.76108],[-42.89996,-14.75584],[-42.88806,-14.76693],[-42.86843,-14.76706],[-42.86719,-14.77173],[-42.87238,-14.7754],[-42.86065,-14.78063],[-42.8498,-14.79508],[-42.84238,-14.7961],[-42.83646,-14.80652],[-42.79099,-14.83941],[-42.75366,-14.8478],[-42.74865,-14.86443],[-42.73593,-14.87746],[-42.72574,-14.87931],[-42.72335,-14.88565],[-42.71363,-14.8843],[-42.71488,-14.88011],[-42.70416,-14.88286],[-42.69279,-14.90253],[-42.67985,-14.90336],[-42.66379,-14.91634],[-42.65969,-14.91047],[-42.65255,-14.92076],[-42.65521,-14.92429],[-42.6254,-14.94506],[-42.60254,-14.92471],[-42.58718,-14.93027],[-42.56068,-14.96233],[-42.55432,-14.95934],[-42.53488,-14.96662],[-42.53163,-14.97752],[-42.49574,-14.9949],[-42.47591,-15.01708],[-42.4368,-15.02275],[-42.4423,-15.03544],[-42.44293,-15.06136],[-42.42167,-15.06557],[-42.40106,-15.07728],[-42.37447,-15.07137],[-42.3549,-15.09824],[-42.33724,-15.0805],[-42.3312,-15.08],[-42.32369,-15.0936],[-42.28383,-15.11735],[-42.27544,-15.11333],[-42.26479,-15.12522],[-42.24718,-15.10926],[-42.22743,-15.0993],[-42.21774,-15.10445],[-42.20282,-15.10011],[-42.1926,-15.10316],[-42.18296,-15.09968],[-42.1798,-15.08786],[-42.17332,-15.08599],[-42.16446,-15.09743],[-42.15335,-15.0994],[-42.1499,-15.12039],[-42.1163,-15.14416],[-42.10738,-15.16664],[-42.09832,-15.16836],[-42.09162,-15.18664],[-42.08471,-15.18657],[-42.07329,-15.17574],[-41.9975,-15.15893],[-41.98779,-15.16837],[-41.93254,-15.17454],[-41.92663,-15.16083],[-41.91512,-15.16063],[-41.90987,-15.15441],[-41.89704,-15.15194],[-41.87631,-15.13168],[-41.87043,-15.11522],[-41.84831,-15.11688],[-41.80071,-15.10114],[-41.35805,-15.49884],[-41.33121,-15.74471],[-41.29295,-15.73904],[-41.26857,-15.74874],[-41.2535,-15.74696],[-41.2374,-15.73755],[-41.2154,-15.7372],[-41.19978,-15.74896],[-41.15629,-15.76142],[-41.14435,-15.77193],[-41.13562,-15.76618],[-41.12864,-15.74681],[-41.0929,-15.73872],[-41.07756,-15.71933],[-41.05343,-15.72515],[-41.03628,-15.71386],[-41.00391,-15.71189],[-40.97962,-15.6917],[-40.97497,-15.66912],[-40.96313,-15.64844],[-40.94921,-15.65628],[-40.93042,-15.66108],[-40.92654,-15.65609],[-40.91285,-15.66242],[-40.90258,-15.69188],[-40.88157,-15.69451],[-40.84884,-15.68135],[-40.84204,-15.68327],[-40.83956,-15.67498],[-40.83146,-15.67082],[-40.82932,-15.6483],[-40.81685,-15.64761],[-40.78035,-15.68024],[-40.78596,-15.6923],[-40.78329,-15.70142],[-40.76767,-15.71412],[-40.73987,-15.70369],[-40.73753,-15.69782],[-40.74382,-15.68406],[-40.73217,-15.67494],[-40.70065,-15.66803],[-40.68232,-15.69906],[-40.66121,-15.70717],[-40.64496,-15.7289],[-40.63753,-15.73032],[-40.6294,-15.71575],[-40.61417,-15.73515],[-40.60661,-15.7368],[-40.59982,-15.75115],[-40.60396,-15.75933],[-40.59262,-15.76236],[-40.59311,-15.77179],[-40.56743,-15.77596],[-40.57314,-15.78812],[-40.56348,-15.80294],[-40.55288,-15.80376],[-40.5389,-15.79486],[-40.51829,-15.79755],[-40.51915,-15.78092],[-40.50632,-15.76694],[-40.49467,-15.76592],[-40.48414,-15.77584],[-40.46144,-15.75327],[-40.43248,-15.77869],[-40.42505,-15.80575],[-40.41459,-15.80658],[-40.40218,-15.81674],[-40.39735,-15.8139],[-40.39229,-15.81992],[-40.38251,-15.81454],[-40.37687,-15.82356],[-40.37151,-15.81441],[-40.33924,-15.8168],[-40.33612,-15.82437],[-40.32754,-15.81827],[-40.29442,-15.81665],[-40.28268,-15.80801],[-40.27118,-15.81735],[-40.2626,-15.80887],[-40.23113,-15.80389],[-40.22402,-15.82752],[-40.21827,-15.82664],[-40.21885,-15.83582],[-40.21301,-15.8358],[-40.21282,-15.84234],[-40.20585,-15.84615],[-40.20688,-15.85453],[-40.19918,-15.8569],[-40.20009,-15.86255],[-40.19267,-15.85779],[-40.17398,-15.87053],[-40.16612,-15.86842],[-40.16585,-15.89411],[-40.17429,-15.89829],[-40.17533,-15.9041],[-40.17073,-15.90757],[-40.16687,-15.90506],[-40.16476,-15.91027],[-40.15648,-15.89958],[-40.14932,-15.90541],[-40.14059,-15.89893],[-40.13742,-15.90632],[-40.11707,-15.90354],[-40.11301,-15.91133],[-40.10537,-15.91209],[-40.09664,-15.90744],[-40.09686,-15.90025],[-40.08501,-15.89716],[-40.08174,-15.90486],[-40.08678,-15.91362],[-40.08092,-15.92414],[-40.07307,-15.91207],[-40.06606,-15.90993],[-40.07168,-15.9262],[-40.06636,-15.92502],[-40.06887,-15.93395],[-40.07692,-15.93438],[-40.07885,-15.94096],[-40.06615,-15.93981],[-40.06622,-15.95041],[-40.05915,-15.95322],[-40.06621,-15.96025],[-40.06118,-15.96404],[-40.04579,-15.9624],[-40.04312,-15.96836],[-40.04654,-15.97005],[-40.03148,-15.97332],[-40.0327,-15.97861],[-40.0226,-15.99049],[-40.02134,-15.98485],[-40.01371,-15.98405],[-40.00845,-15.99496],[-40.00099,-15.99472],[-40.00445,-16.00188],[-39.99509,-16.00052],[-39.99207,-15.99504],[-39.98001,-15.99768],[-39.98028,-16.0056],[-39.96398,-16.00537],[-39.9646,-15.99889],[-39.95381,-15.99148],[-39.91516,-16.00003],[-39.9357,-16.02379],[-39.92222,-16.02867],[-39.89946,-16.04965],[-39.90026,-16.05882],[-39.88202,-16.06807],[-39.87666,-16.07929],[-39.87743,-16.09165],[-39.86662,-16.09564],[-39.85685,-16.11387],[-39.86082,-16.12477],[-39.88337,-16.14493],[-39.89045,-16.13845],[-39.89697,-16.14164],[-39.89371,-16.15042],[-39.88729,-16.15102],[-39.88296,-16.16382],[-39.88341,-16.19473],[-39.89842,-16.20141],[-39.9022,-16.20854],[-39.91265,-16.21035],[-39.91226,-16.21642],[-39.93654,-16.24582],[-39.92012,-16.26378],[-39.9167,-16.28388],[-39.93268,-16.28364],[-39.93373,-16.28873],[-39.95426,-16.30006],[-39.96051,-16.32192],[-39.96669,-16.32725],[-39.97065,-16.32697],[-39.97227,-16.31776],[-39.97942,-16.31687],[-39.97841,-16.31118],[-39.99172,-16.31374],[-39.9967,-16.33218],[-40.01126,-16.34016],[-40.01148,-16.34631],[-40.02523,-16.3574],[-40.04104,-16.41186],[-40.05327,-16.43273],[-40.06273,-16.43202],[-40.06581,-16.45756],[-40.084,-16.46396],[-40.08837,-16.45219],[-40.0965,-16.44881],[-40.09226,-16.4346],[-40.09604,-16.42202],[-40.09966,-16.42325],[-40.11581,-16.46563],[-40.12073,-16.4666],[-40.1585,-16.51379],[-40.16267,-16.52438],[-40.16786,-16.52116],[-40.17123,-16.52418],[-40.17023,-16.53361],[-40.17487,-16.53793],[-40.16156,-16.54432],[-40.16137,-16.5586],[-40.1551,-16.56287],[-40.161,-16.572],[-40.15987,-16.58036],[-40.17174,-16.5772],[-40.17414,-16.58265],[-40.1902,-16.571],[-40.21204,-16.57316],[-40.23495,-16.5586],[-40.23668,-16.56415],[-40.24587,-16.56703],[-40.24704,-16.5736],[-40.2547,-16.56947],[-40.26148,-16.57466],[-40.27575,-16.57406],[-40.28765,-16.59761],[-40.28384,-16.60481],[-40.29826,-16.6525],[-40.31317,-16.67868],[-40.31106,-16.69587],[-40.30237,-16.70821],[-40.31059,-16.71932],[-40.31018,-16.73625],[-40.32014,-16.74632],[-40.33585,-16.77975],[-40.34551,-16.7873],[-40.33549,-16.78827],[-40.32362,-16.8013],[-40.29467,-16.79666],[-40.28281,-16.80402],[-40.26914,-16.79579],[-40.25782,-16.80658],[-40.25848,-16.82076],[-40.24692,-16.84577],[-40.25184,-16.84907],[-40.2526,-16.86024],[-40.26604,-16.86035],[-40.28165,-16.90122],[-40.29347,-16.90466],[-40.30279,-16.89228],[-40.32716,-16.90935],[-40.3399,-16.89852],[-40.34876,-16.89934],[-40.34831,-16.88808],[-40.3665,-16.87421],[-40.37137,-16.87494],[-40.37591,-16.88591],[-40.39362,-16.88672],[-40.40757,-16.89872],[-40.41762,-16.8993],[-40.43469,-16.88757],[-40.43698,-16.89319],[-40.44895,-16.8924],[-40.45412,-16.88163],[-40.48018,-16.87684],[-40.49122,-16.88452],[-40.4927,-16.90414],[-40.51634,-16.96361],[-40.53503,-16.98085],[-40.54545,-16.98423],[-40.55559,-17.01343],[-40.55259,-17.01966],[-40.5708,-17.06236],[-40.56987,-17.08108],[-40.56143,-17.08246],[-40.55662,-17.09684],[-40.56293,-17.12636],[-40.57811,-17.14464],[-40.57462,-17.18037],[-40.5542,-17.1888],[-40.55239,-17.19918],[-40.56155,-17.20924],[-40.5584,-17.23071],[-40.56992,-17.24164],[-40.57126,-17.25299],[-40.56336,-17.25932],[-40.56198,-17.27254],[-40.54776,-17.28374],[-40.57225,-17.2948],[-40.58223,-17.31115],[-40.59053,-17.31301],[-40.59485,-17.32359],[-40.60904,-17.327],[-40.60301,-17.34066],[-40.59274,-17.3455],[-40.60549,-17.35892],[-40.59895,-17.36457],[-40.59867,-17.38967],[-40.62348,-17.40601],[-40.60774,-17.41817],[-40.59608,-17.4206],[-40.57748,-17.41365],[-40.55417,-17.4356],[-40.51969,-17.44684],[-40.52095,-17.45838],[-40.49787,-17.47916],[-40.49545,-17.48676],[-40.48301,-17.48854],[-40.48907,-17.51982],[-40.47521,-17.53381],[-40.46043,-17.56853],[-40.44511,-17.57879],[-40.43209,-17.56759],[-40.41193,-17.56775],[-40.41454,-17.57619],[-40.41046,-17.5871],[-40.41596,-17.5864],[-40.41823,-17.59912],[-40.41448,-17.61012],[-40.40348,-17.61154],[-40.39682,-17.62563],[-40.37995,-17.61134],[-40.37197,-17.61248],[-40.35467,-17.6443],[-40.34743,-17.6132],[-40.32184,-17.64374],[-40.32586,-17.6526],[-40.32284,-17.66134],[-40.30773,-17.66569],[-40.29903,-17.67459],[-40.29812,-17.69629],[-40.28626,-17.70075],[-40.28038,-17.72281],[-40.27034,-17.72708],[-40.25592,-17.71957],[-40.24902,-17.73031],[-40.23673,-17.73567],[-40.22396,-17.73409],[-40.21367,-17.75371],[-40.21809,-17.79568],[-40.20453,-17.80535],[-40.20416,-17.82907],[-40.18643,-17.83255],[-40.17439,-17.85188],[-40.21267,-17.89582],[-40.26356,-17.92205],[-40.2646,-17.9339],[-40.24217,-17.95259],[-40.22684,-17.95828],[-40.22198,-17.98068],[-40.25537,-17.97182],[-40.26631,-17.96204],[-40.27569,-17.96258],[-40.29101,-17.95187],[-40.29112,-17.94691],[-40.3062,-17.94738],[-40.31228,-17.93966],[-40.32345,-17.93897],[-40.33397,-17.92738],[-40.34774,-17.92361],[-40.35562,-17.93048],[-40.36784,-17.92266],[-40.37316,-17.92767],[-40.40325,-17.92355],[-40.41743,-17.92706],[-40.45388,-17.91883],[-40.4642,-17.92823],[-40.48414,-17.90867],[-40.50334,-17.9107],[-40.51806,-17.89398],[-40.52705,-17.89197],[-40.54775,-17.90755],[-40.58472,-17.91819],[-40.58717,-17.93904],[-40.5972,-17.93606],[-40.61346,-17.93975],[-40.61262,-17.94953],[-40.62189,-17.96059],[-40.61428,-17.96752],[-40.6243,-17.97594],[-40.62478,-17.98911],[-40.64604,-17.99358],[-40.6515,-18.00689],[-40.66178,-18.01293],[-40.68423,-18.0102],[-40.70369,-18.02375],[-40.70962,-18.02101],[-40.71618,-18.00464],[-40.72578,-18.00124],[-40.75078,-18.00993],[-40.77178,-18.00341],[-40.77486,-17.99664],[-40.77121,-17.98108],[-40.77773,-17.98233],[-40.78213,-17.97527],[-40.79501,-17.98176],[-40.79189,-17.97151],[-40.79848,-17.95697],[-40.80263,-17.95852],[-40.80925,-17.95234],[-40.82498,-17.96372],[-40.83056,-17.9542],[-40.83705,-17.95721],[-40.86314,-17.98834],[-40.87787,-17.98175],[-40.88272,-17.97057],[-40.89118,-17.98306],[-40.89711,-17.98175],[-40.90281,-17.9873],[-40.77331,-18.10758],[-40.7715,-18.15594],[-40.79372,-18.16017],[-40.80523,-18.15299],[-40.84391,-18.14659],[-40.84508,-18.14983],[-40.85603,-18.13984],[-40.86331,-18.13915],[-40.87756,-18.11945],[-40.8807,-18.12416],[-40.88902,-18.12404],[-40.89392,-18.11891],[-40.89312,-18.1079],[-40.89901,-18.11253],[-40.90424,-18.1102],[-40.90455,-18.11595],[-40.91731,-18.12076],[-40.93222,-18.1365],[-40.94052,-18.13647],[-40.95001,-18.12931],[-40.94887,-18.14572],[-40.95454,-18.15451],[-40.96218,-18.15419],[-40.96752,-18.14524],[-40.98033,-18.14138],[-40.98881,-18.15296],[-40.9884,-18.16982],[-40.99322,-18.16625],[-41.0106,-18.16742],[-41.0146,-18.1576],[-41.02811,-18.15769],[-41.03382,-18.17213],[-41.03814,-18.17111],[-41.03534,-18.16282],[-41.05609,-18.16664],[-41.05646,-18.17886],[-41.09274,-18.19542],[-41.09412,-18.2087],[-41.10445,-18.2133],[-41.09173,-18.22806],[-41.10275,-18.23699],[-41.09648,-18.2556],[-41.1275,-18.27694],[-41.14293,-18.2982],[-41.15881,-18.30877],[-41.15467,-18.33472],[-41.15016,-18.33637],[-41.14589,-18.37388],[-41.14811,-18.37917],[-41.1596,-18.38148],[-41.16255,-18.39078],[-41.16045,-18.40282],[-41.14426,-18.40526],[-41.14723,-18.41147],[-41.16667,-18.41523],[-41.1821,-18.43927],[-41.17425,-18.44471],[-41.02042,-18.45911],[-41.01589,-18.47677],[-41.04199,-18.60542],[-41.03372,-18.60663],[-41.03297,-18.61878],[-41.05311,-18.62874],[-41.04156,-18.63977],[-41.04443,-18.64829],[-41.03239,-18.6446],[-41.02875,-18.64674],[-41.03223,-18.65265],[-41.02022,-18.65497],[-41.00523,-18.66729],[-40.98887,-18.67323],[-40.98783,-18.67815],[-40.95207,-18.68084],[-40.9415,-18.68931],[-40.94001,-18.7703],[-40.92662,-18.78819],[-40.92864,-18.79295],[-40.92195,-18.79727],[-40.91678,-18.81556],[-40.92792,-18.81972],[-40.93803,-18.83171],[-40.94696,-18.82601],[-40.95108,-18.83472],[-40.96309,-18.83616],[-40.96392,-18.84118],[-41.07026,-18.83635],[-41.09748,-18.84232],[-41.11051,-18.83895],[-41.11921,-18.81014],[-41.13003,-18.80745],[-41.13414,-18.79605],[-41.23255,-18.79729],[-41.24548,-18.82197],[-41.23783,-18.83478],[-41.24388,-18.84358],[-41.23973,-18.84688],[-41.24297,-18.85455],[-41.23011,-18.85838],[-41.21479,-18.87765],[-41.20978,-18.87445],[-41.20843,-18.85506],[-41.19901,-18.86335],[-41.18942,-18.86423],[-41.16607,-18.85837],[-41.15922,-18.86437],[-41.15296,-18.88662],[-41.1438,-18.88492],[-41.11959,-18.90346],[-41.1205,-18.90803],[-41.11437,-18.91268],[-41.11818,-18.92178],[-41.10368,-18.93407],[-41.07925,-18.93855],[-41.07863,-18.9477],[-41.07007,-18.94174],[-41.06487,-18.94505],[-41.0615,-18.9677],[-41.05136,-18.96623],[-41.05176,-18.97406],[-41.04065,-18.98068],[-41.01803,-18.97352],[-41.01734,-18.97927],[-41.03223,-18.99086],[-41.06668,-19.0065],[-41.06594,-19.01639],[-41.0718,-19.02386],[-41.06315,-19.03931],[-41.06556,-19.05134],[-41.05324,-19.05918],[-41.05386,-19.06887],[-41.0355,-19.07157],[-41.02542,-19.07998],[-41.01261,-19.07581],[-41.015,-19.09176],[-41.00447,-19.08367],[-41.00971,-19.09793],[-40.98477,-19.10073],[-40.98465,-19.10786],[-40.96958,-19.1229],[-40.9629,-19.12157],[-40.95612,-19.12912],[-40.96196,-19.14407],[-40.94401,-19.14401],[-40.94887,-19.15329],[-40.94292,-19.15867],[-40.94109,-19.18058],[-40.93367,-19.18046],[-40.93259,-19.18629],[-40.92651,-19.18855],[-40.92955,-19.19787],[-40.92268,-19.2041],[-40.93103,-19.22243],[-40.94217,-19.23382],[-40.93303,-19.24264],[-40.93866,-19.24939],[-40.9202,-19.25183],[-40.91716,-19.25686],[-40.91996,-19.27144],[-40.93494,-19.27176],[-40.94451,-19.27955],[-40.93839,-19.2864],[-40.92807,-19.28612],[-40.93134,-19.29985],[-40.91451,-19.30074],[-40.90829,-19.30652],[-40.93889,-19.34822],[-40.93964,-19.35864],[-40.92812,-19.36867],[-40.9318,-19.37334],[-40.92845,-19.38189],[-40.95718,-19.39885],[-40.96222,-19.40843],[-40.96048,-19.41932],[-40.96798,-19.42534],[-40.95785,-19.44993],[-40.94488,-19.46012],[-40.9514,-19.46566],[-40.94934,-19.47316],[-40.9712,-19.4946],[-40.97135,-19.50382],[-41.00938,-19.50727],[-41.04576,-19.4879],[-41.04967,-19.50302],[-41.04091,-19.51592],[-41.04497,-19.53856],[-41.03626,-19.56853],[-41.05746,-19.57826],[-41.05626,-19.58481],[-41.07192,-19.58441],[-41.07329,-19.59797],[-41.09089,-19.59634],[-41.09932,-19.60421],[-41.10861,-19.63947],[-41.1295,-19.64274],[-41.13863,-19.65872],[-41.14897,-19.66385],[-41.15898,-19.66138],[-41.16848,-19.67222],[-41.17773,-19.70329],[-41.17431,-19.71564],[-41.18202,-19.73217],[-41.17951,-19.7401],[-41.19089,-19.74687],[-41.18777,-19.75811],[-41.1749,-19.76705],[-41.17407,-19.784],[-41.16595,-19.79246],[-41.16619,-19.81058],[-41.17548,-19.82574],[-41.1863,-19.82766],[-41.1757,-19.83935],[-41.18401,-19.84882],[-41.18489,-19.88896],[-41.20506,-19.90311],[-41.22889,-19.90575],[-41.2435,-19.93673],[-41.24893,-19.93794],[-41.25462,-19.93214],[-41.27144,-19.9422],[-41.29939,-19.93707],[-41.30792,-19.94834],[-41.31164,-19.97171],[-41.3199,-19.97862],[-41.3088,-19.99706],[-41.30911,-20.01636],[-41.31726,-20.02696],[-41.32419,-20.05235],[-41.33356,-20.05883],[-41.33754,-20.08697],[-41.34517,-20.09011],[-41.34398,-20.10012],[-41.35089,-20.11915],[-41.34752,-20.1239],[-41.36784,-20.15684],[-41.37594,-20.16194],[-41.3741,-20.16815],[-41.38212,-20.1888],[-41.40167,-20.19922],[-41.4077,-20.19737],[-41.41115,-20.20736],[-41.75676,-20.20686],[-41.76578,-20.2239],[-41.78214,-20.29447],[-41.80309,-20.2992],[-41.80695,-20.30748],[-41.82284,-20.31108],[-41.83646,-20.33001],[-41.84187,-20.32654],[-41.84839,-20.33017],[-41.8444,-20.34092],[-41.85265,-20.34815],[-41.85905,-20.37367],[-41.84779,-20.37508],[-41.83653,-20.4093],[-41.80339,-20.42223],[-41.79823,-20.43501],[-41.80287,-20.44294],[-41.79944,-20.47727],[-41.8122,-20.51913],[-41.80493,-20.54468],[-41.80831,-20.55053],[-41.82839,-20.55728],[-41.8408,-20.58649],[-41.8413,-20.60043],[-41.84575,-20.60675],[-41.85315,-20.60754],[-41.8564,-20.61718],[-41.83918,-20.62482],[-41.81742,-20.62452],[-41.8212,-20.63712],[-41.81474,-20.64062],[-41.81146,-20.63754],[-41.8088,-20.64421],[-41.81642,-20.64703],[-41.81323,-20.65325],[-41.81948,-20.65779],[-41.82765,-20.65639],[-41.82416,-20.66302],[-41.83937,-20.68343],[-41.84685,-20.6861],[-41.85462,-20.70545],[-41.86106,-20.70673],[-41.86274,-20.71228],[-41.8562,-20.71428],[-41.8613,-20.72259],[-41.86536,-20.722],[-41.85656,-20.74767],[-41.86352,-20.74193],[-41.87412,-20.74414],[-41.8798,-20.75955],[-41.87347,-20.77092],[-41.87881,-20.77871],[-41.9012,-20.79623],[-41.92814,-20.79498],[-41.92535,-20.80157],[-41.9354,-20.82855],[-41.92616,-20.83805],[-41.93565,-20.85463],[-41.94979,-20.85795],[-41.95473,-20.86549],[-41.95033,-20.87439],[-41.9652,-20.89285],[-41.96734,-20.91682],[-41.97965,-20.92235],[-41.97667,-20.93549],[-41.99868,-20.92646],[-42.00459,-20.93202],[-42.02337,-20.92546],[-42.06574,-20.93863],[-42.09397,-20.93601],[-42.11523,-20.95022],[-42.11559,-20.95921],[-42.12549,-20.95583],[-42.1384,-20.96054],[-42.15168,-20.97436],[-42.14124,-20.99314],[-42.1265,-21.00357],[-42.11701,-21.00257],[-42.1091,-21.01475],[-42.08491,-21.02287],[-42.0805,-21.03609],[-42.10112,-21.03444],[-42.10134,-21.04975],[-42.12031,-21.06996],[-42.1212,-21.07808],[-42.13317,-21.08106],[-42.1401,-21.10302],[-42.16437,-21.10144],[-42.17066,-21.11459],[-42.17065,-21.12862],[-42.17941,-21.14096],[-42.19212,-21.14857],[-42.19409,-21.16406],[-42.2085,-21.1782],[-42.19509,-21.20173],[-42.20147,-21.2086],[-42.20295,-21.22167],[-42.19733,-21.22632],[-42.19161,-21.2238],[-42.18878,-21.23003],[-42.19522,-21.23853],[-42.1897,-21.24988],[-42.22944,-21.28518],[-42.22984,-21.30844],[-42.23823,-21.31866],[-42.22412,-21.33797],[-42.23622,-21.34372],[-42.22938,-21.35112],[-42.23261,-21.35414],[-42.22987,-21.36655],[-42.25244,-21.3865],[-42.23794,-21.39294],[-42.23937,-21.40348],[-42.26082,-21.41006],[-42.26745,-21.40002],[-42.27471,-21.40396],[-42.27906,-21.41056],[-42.27549,-21.42833],[-42.29262,-21.46002],[-42.26862,-21.46885],[-42.2714,-21.47565],[-42.25298,-21.49367],[-42.27376,-21.50415],[-42.28643,-21.52805],[-42.29711,-21.52453],[-42.30634,-21.52952],[-42.30293,-21.53948],[-42.30926,-21.55075],[-42.33115,-21.56059],[-42.32595,-21.57],[-42.34626,-21.58295],[-42.36914,-21.61994],[-42.35573,-21.62583],[-42.36982,-21.64027],[-42.36513,-21.64626],[-42.34716,-21.64315],[-42.34309,-21.65968],[-42.33187,-21.66168],[-42.32469,-21.65654],[-42.32042,-21.66072],[-42.3163,-21.65522],[-42.31076,-21.66002],[-42.30178,-21.65528],[-42.28307,-21.67064],[-42.28712,-21.6727],[-42.28337,-21.68092],[-42.27529,-21.67689],[-42.26534,-21.69406],[-42.27212,-21.70427],[-42.26662,-21.70833],[-42.27179,-21.71453],[-42.26736,-21.71419],[-42.30721,-21.7295],[-42.32483,-21.7428],[-42.33583,-21.74623],[-42.35654,-21.74187],[-42.37829,-21.74897],[-42.39119,-21.76019],[-42.58239,-21.8377],[-42.57987,-21.84568],[-42.59743,-21.85369],[-42.60851,-21.85217],[-42.66892,-21.87451],[-42.76774,-21.92134],[-42.88251,-21.96009],[-42.88278,-21.96712],[-42.90908,-21.99047],[-42.95967,-22.015],[-42.96898,-22.01486],[-42.99658,-22.03603],[-43.00304,-22.03236],[-43.03944,-22.04658],[-43.03316,-22.06587],[-43.07413,-22.09332],[-43.07801,-22.08409],[-43.08948,-22.08792],[-43.10674,-22.08401],[-43.12254,-22.09106],[-43.12759,-22.10488],[-43.13654,-22.10964],[-43.15412,-22.07795],[-43.13409,-22.05898],[-43.1281,-22.04622],[-43.13113,-22.02966],[-43.15512,-22.0324],[-43.16954,-22.02218],[-43.20203,-22.03708],[-43.20298,-22.02548],[-43.22314,-22.03166],[-43.23674,-22.02284],[-43.2366,-22.01208],[-43.24654,-22.00701],[-43.25479,-22.01196],[-43.26241,-22.00851],[-43.28052,-22.01101],[-43.29907,-22.02005],[-43.3169,-22.01602],[-43.31779,-22.00684],[-43.33937,-22.01054],[-43.34953,-22.00337],[-43.41927,-22.05378],[-43.46246,-22.07262],[-43.47593,-22.06974],[-43.50752,-22.07448],[-43.50575,-22.06656],[-43.5136,-22.0593],[-43.52558,-22.07198],[-43.56313,-22.08822],[-43.56693,-22.0877],[-43.56925,-22.0778],[-43.58453,-22.0705],[-43.58608,-22.052],[-43.59966,-22.05898],[-43.60372,-22.0721],[-43.6119,-22.07152],[-43.61319,-22.08231],[-43.62074,-22.08382],[-43.62108,-22.07548],[-43.62832,-22.07652],[-43.64561,-22.06591],[-43.6656,-22.07443],[-43.67401,-22.08981],[-43.68191,-22.07159],[-43.69185,-22.07088],[-43.70024,-22.07788],[-43.7094,-22.07697],[-43.70988,-22.08154],[-43.71993,-22.08118],[-43.7346,-22.09723],[-43.7605,-22.08098],[-43.75622,-22.07696],[-43.76386,-22.07323],[-43.76599,-22.06289],[-43.80026,-22.08247],[-43.81032,-22.08227],[-43.84339,-22.09893],[-43.85765,-22.09512],[-43.87143,-22.1039],[-43.87991,-22.10033],[-43.8806,-22.11362],[-43.94078,-22.13212],[-43.95328,-22.14145],[-43.96114,-22.13997],[-43.9788,-22.14663],[-43.97716,-22.14962],[-43.98832,-22.15015],[-43.9933,-22.15831],[-43.99802,-22.15602],[-44.00504,-22.16235],[-44.02393,-22.15135],[-44.03827,-22.15433],[-44.041,-22.16057],[-44.07257,-22.16493],[-44.07686,-22.17538],[-44.08483,-22.17551],[-44.08778,-22.1844],[-44.09019,-22.17579],[-44.10007,-22.17328],[-44.10507,-22.18455],[-44.1231,-22.18824],[-44.12129,-22.19531],[-44.1253,-22.20049],[-44.12151,-22.20909],[-44.1336,-22.21008],[-44.14108,-22.22024],[-44.14918,-22.21364],[-44.15366,-22.22692],[-44.15863,-22.22526],[-44.16413,-22.23251],[-44.16686,-22.22755],[-44.18025,-22.22803],[-44.20169,-22.25153],[-44.21332,-22.24624],[-44.23547,-22.26618],[-44.23913,-22.26291],[-44.24672,-22.26698],[-44.25079,-22.26066],[-44.26028,-22.26834],[-44.26349,-22.24341],[-44.2673,-22.2483],[-44.27638,-22.24315],[-44.28944,-22.24743],[-44.2915,-22.24303],[-44.30178,-22.25352],[-44.31472,-22.25447],[-44.32199,-22.26113],[-44.32392,-22.25496],[-44.33723,-22.25865],[-44.34422,-22.25359],[-44.35233,-22.25772],[-44.36024,-22.25264],[-44.38758,-22.27247],[-44.39478,-22.25888],[-44.41444,-22.25412],[-44.43226,-22.25141],[-44.43841,-22.25829],[-44.44044,-22.25479],[-44.45644,-22.25722],[-44.46261,-22.26667],[-44.45912,-22.27047],[-44.46328,-22.27499],[-44.46113,-22.28033],[-44.46799,-22.27957],[-44.49677,-22.30285],[-44.51366,-22.30897],[-44.53195,-22.32865],[-44.54346,-22.33184],[-44.54585,-22.32362],[-44.56433,-22.33235],[-44.57166,-22.32412],[-44.58103,-22.32775],[-44.58904,-22.32037],[-44.6123,-22.32818],[-44.62616,-22.33607],[-44.62833,-22.34595],[-44.64289,-22.35372],[-44.64625,-22.36511],[-44.66069,-22.38049],[-44.66647,-22.37316],[-44.69161,-22.37007],[-44.70552,-22.37328],[-44.72397,-22.35992],[-44.74444,-22.37617],[-44.76202,-22.37622],[-44.77599,-22.38426],[-44.7937,-22.38706],[-44.804,-22.39379],[-44.80797,-22.41408],[-44.82412,-22.4193],[-44.83294,-22.43096],[-44.8545,-22.42797],[-44.85958,-22.42301],[-44.88972,-22.43209],[-44.89783,-22.45288],[-44.94005,-22.45264],[-44.96584,-22.47516],[-44.9918,-22.46614],[-45.02713,-22.4702],[-45.02839,-22.46317],[-45.06067,-22.47252],[-45.08263,-22.48634],[-45.09111,-22.48307],[-45.15031,-22.50732],[-45.16675,-22.53066],[-45.1645,-22.5379],[-45.17803,-22.54984],[-45.22308,-22.5636],[-45.2609,-22.58333],[-45.25711,-22.59027],[-45.2642,-22.60454],[-45.26139,-22.60708],[-45.27585,-22.61693],[-45.29384,-22.61364],[-45.33295,-22.61761],[-45.36094,-22.63873],[-45.37058,-22.63728],[-45.39997,-22.65365],[-45.4105,-22.65164],[-45.41248,-22.62297],[-45.43372,-22.61919],[-45.43748,-22.61171],[-45.47384,-22.58886],[-45.48127,-22.59116],[-45.47476,-22.59948],[-45.48878,-22.62875],[-45.50052,-22.62594],[-45.52491,-22.64684],[-45.53303,-22.64672],[-45.53989,-22.65255],[-45.57356,-22.65694],[-45.58435,-22.65166],[-45.57731,-22.6405],[-45.57281,-22.64119],[-45.55534,-22.62641],[-45.5765,-22.60167],[-45.58798,-22.61039],[-45.58476,-22.61548],[-45.60506,-22.6204],[-45.61811,-22.63788],[-45.66453,-22.65034],[-45.68106,-22.6363],[-45.66609,-22.61266],[-45.66439,-22.60005],[-45.65884,-22.59808],[-45.66306,-22.58667],[-45.65986,-22.58005],[-45.6787,-22.57326],[-45.69542,-22.58631],[-45.71682,-22.57767],[-45.72757,-22.5943],[-45.73458,-22.59742],[-45.73741,-22.60851],[-45.72978,-22.6132],[-45.73004,-22.61868],[-45.71745,-22.62098],[-45.7087,-22.63944],[-45.69965,-22.64239],[-45.69397,-22.65168],[-45.71616,-22.66196],[-45.73221,-22.6568],[-45.74279,-22.65913],[-45.75053,-22.67121],[-45.77886,-22.68354],[-45.78784,-22.69332],[-45.81162,-22.69868],[-45.81797,-22.71134],[-45.81663,-22.72743],[-45.80582,-22.73694],[-45.79562,-22.73899],[-45.75645,-22.72101],[-45.72813,-22.72365],[-45.71219,-22.76981],[-45.71678,-22.77995],[-45.72901,-22.7852],[-45.72997,-22.79981],[-45.71431,-22.8086],[-45.71356,-22.81475],[-45.72276,-22.81628],[-45.72876,-22.81015],[-45.74169,-22.80788],[-45.74532,-22.79403],[-45.7549,-22.79288],[-45.759,-22.801],[-45.77093,-22.80589],[-45.76695,-22.84231],[-45.78187,-22.85522],[-45.7922,-22.85768],[-45.80978,-22.82935],[-45.81612,-22.83435],[-45.82335,-22.82985],[-45.82947,-22.83486],[-45.84172,-22.83315],[-45.85726,-22.85115],[-45.85756,-22.86067],[-45.86383,-22.86868],[-45.8889,-22.87578],[-45.89006,-22.85794],[-45.89408,-22.85708],[-45.89101,-22.84464],[-45.90565,-22.83406],[-45.90877,-22.8294],[-45.90428,-22.81922],[-45.91265,-22.81656],[-45.93693,-22.84522],[-45.95039,-22.84586],[-45.96017,-22.8576],[-45.96481,-22.85554],[-45.97648,-22.8654],[-45.99233,-22.86956],[-45.99206,-22.87746],[-46.00166,-22.87976],[-46.00842,-22.88919],[-46.02731,-22.88464],[-46.05176,-22.89629],[-46.07537,-22.89093],[-46.0952,-22.8944],[-46.13907,-22.92272],[-46.15397,-22.91237],[-46.13687,-22.89051],[-46.14209,-22.88092],[-46.14409,-22.85797],[-46.15531,-22.86413],[-46.18548,-22.86916],[-46.19218,-22.8652],[-46.23412,-22.88179],[-46.23815,-22.89412],[-46.25851,-22.89054],[-46.26684,-22.87565],[-46.27901,-22.87831],[-46.29501,-22.89779],[-46.31398,-22.88696],[-46.33596,-22.89604],[-46.34462,-22.9045],[-46.35629,-22.90027],[-46.37297,-22.87946],[-46.37781,-22.87921],[-46.37548,-22.87097],[-46.38417,-22.86993],[-46.37256,-22.86006],[-46.37068,-22.83504],[-46.37679,-22.82779],[-46.36167,-22.78891],[-46.34347,-22.77743],[-46.34162,-22.76931],[-46.33254,-22.76608],[-46.33452,-22.76027],[-46.35487,-22.75706],[-46.36046,-22.76131],[-46.37298,-22.74672],[-46.38578,-22.74027],[-46.40662,-22.74089],[-46.42146,-22.73248],[-46.42683,-22.73573],[-46.43672,-22.73191],[-46.43943,-22.72669],[-46.4527,-22.72755],[-46.45817,-22.70706],[-46.46862,-22.70128],[-46.4731,-22.70495],[-46.47817,-22.69954],[-46.46995,-22.69394],[-46.48061,-22.67828],[-46.46907,-22.67315],[-46.46128,-22.67598],[-46.42769,-22.66133],[-46.41998,-22.66495],[-46.4134,-22.65982],[-46.40565,-22.66258],[-46.40584,-22.67253],[-46.39304,-22.66294],[-46.39629,-22.64595],[-46.4246,-22.63357],[-46.42298,-22.62482],[-46.40474,-22.62086],[-46.42418,-22.59952],[-46.41242,-22.58542],[-46.4287,-22.5839],[-46.43373,-22.57385],[-46.41139,-22.55428],[-46.40693,-22.5399],[-46.41167,-22.53667],[-46.41792,-22.54743],[-46.42596,-22.5476],[-46.43996,-22.53999],[-46.4395,-22.53467],[-46.44917,-22.5308],[-46.45334,-22.52241],[-46.48455,-22.51921],[-46.49116,-22.51036],[-46.50527,-22.51702],[-46.50697,-22.50693],[-46.54212,-22.49433],[-46.53064,-22.47082],[-46.54984,-22.46952],[-46.54879,-22.45513],[-46.55479,-22.44662],[-46.57263,-22.45311],[-46.57365,-22.44556],[-46.58511,-22.43942],[-46.60344,-22.44305],[-46.6119,-22.43541],[-46.61628,-22.43861],[-46.63158,-22.43581],[-46.63987,-22.42555],[-46.64701,-22.42881],[-46.6668,-22.41375],[-46.6634,-22.39152],[-46.66628,-22.38096],[-46.6609,-22.36601],[-46.67523,-22.36938],[-46.68701,-22.35727],[-46.68759,-22.34938],[-46.6976,-22.34318],[-46.69522,-22.33521],[-46.70117,-22.32147],[-46.71079,-22.3193],[-46.71096,-22.31276],[-46.71793,-22.31692],[-46.72324,-22.3066],[-46.71573,-22.30659],[-46.70536,-22.29592],[-46.71049,-22.28497],[-46.70231,-22.27785],[-46.71087,-22.26392],[-46.69402,-22.24664],[-46.6886,-22.24874],[-46.69312,-22.2376],[-46.67797,-22.22351],[-46.68023,-22.21686],[-46.67078,-22.18423],[-46.67428,-22.17628],[-46.64556,-22.18062],[-46.64043,-22.15769],[-46.61302,-22.15023],[-46.59851,-22.13636],[-46.61609,-22.13063],[-46.62363,-22.10899],[-46.63432,-22.10764],[-46.64998,-22.09147],[-46.6709,-22.09732],[-46.68084,-22.09093],[-46.68792,-22.09355],[-46.69347,-22.09005],[-46.70044,-22.09515],[-46.71535,-22.09134],[-46.72342,-22.0768],[-46.71676,-22.07357],[-46.70609,-22.07895],[-46.69637,-22.0729],[-46.66476,-22.06884],[-46.65806,-22.05997],[-46.67634,-22.05541],[-46.6854,-22.03728],[-46.68088,-22.02644],[-46.67519,-22.02221],[-46.66218,-22.02367],[-46.64989,-22.00952],[-46.61511,-22.01736],[-46.61244,-22.00484],[-46.63097,-21.98115],[-46.64418,-21.97453],[-46.6538,-21.95332],[-46.65362,-21.94168],[-46.66728,-21.93254],[-46.66499,-21.92057],[-46.67314,-21.90807],[-46.66376,-21.89808],[-46.65314,-21.89599],[-46.64751,-21.88044],[-46.6578,-21.87415],[-46.66612,-21.8509],[-46.67714,-21.85001],[-46.69069,-21.83761],[-46.65118,-21.78942],[-46.65397,-21.77922],[-46.63942,-21.76845],[-46.626,-21.7662],[-46.63082,-21.74088],[-46.62242,-21.71552],[-46.62985,-21.7047],[-46.62118,-21.67553],[-46.57692,-21.68504],[-46.56585,-21.6793],[-46.56667,-21.65918],[-46.54824,-21.64985],[-46.55295,-21.63805],[-46.54734,-21.63041],[-46.53484,-21.62866],[-46.53426,-21.62127],[-46.5182,-21.6128],[-46.51595,-21.60597],[-46.52425,-21.60109],[-46.51841,-21.59303],[-46.52197,-21.58449],[-46.50002,-21.55451],[-46.51108,-21.53586],[-46.52004,-21.53502],[-46.52415,-21.52183],[-46.51608,-21.51132],[-46.51922,-21.50087],[-46.50886,-21.48911],[-46.51221,-21.47716],[-46.50923,-21.46988],[-46.51953,-21.462],[-46.52017,-21.44762],[-46.52847,-21.44497],[-46.53575,-21.44912],[-46.5477,-21.44046],[-46.56139,-21.44179],[-46.57649,-21.42694],[-46.60186,-21.44394],[-46.61523,-21.44145],[-46.62001,-21.4352],[-46.61605,-21.43023],[-46.62064,-21.42598],[-46.61839,-21.42129],[-46.62654,-21.41147],[-46.63732,-21.41067],[-46.63879,-21.40199],[-46.64748,-21.39359],[-46.64717,-21.36417],[-46.6667,-21.36127],[-46.67389,-21.37447],[-46.69218,-21.38273],[-46.70594,-21.40482],[-46.72042,-21.38962],[-46.73434,-21.39415],[-46.7538,-21.38163],[-46.76211,-21.37495],[-46.75881,-21.36289],[-46.76468,-21.36004],[-46.79173,-21.37366],[-46.83081,-21.36611],[-46.83604,-21.37071],[-46.83521,-21.3825],[-46.84206,-21.38909],[-46.85576,-21.3897],[-46.86532,-21.39555],[-46.8681,-21.4037],[-46.88476,-21.40663],[-46.89349,-21.41568],[-46.90026,-21.41317],[-46.90829,-21.42116],[-46.9169,-21.42085],[-46.92075,-21.42711],[-46.92543,-21.42262],[-46.93422,-21.42523],[-46.94906,-21.41957],[-46.95663,-21.42472],[-46.97432,-21.41783],[-46.98434,-21.42668],[-46.98684,-21.42162],[-46.9927,-21.42528],[-46.99965,-21.42098],[-47.01121,-21.42225],[-47.01281,-21.41633],[-47.00769,-21.41065],[-47.01622,-21.39794],[-47.00455,-21.38355],[-47.00951,-21.37073],[-46.99681,-21.35768],[-46.99856,-21.34907],[-47.01803,-21.34029],[-47.02373,-21.32849],[-47.02096,-21.32161],[-47.03515,-21.311],[-47.02976,-21.29946],[-47.04234,-21.28994],[-47.0395,-21.28093],[-47.05225,-21.2465],[-47.06306,-21.23929],[-47.07726,-21.24021],[-47.07888,-21.23058],[-47.06173,-21.21084],[-47.08654,-21.2074],[-47.09846,-21.21407],[-47.1028,-21.20055],[-47.1185,-21.18591],[-47.12362,-21.16789],[-47.11857,-21.14903],[-47.13348,-21.13344],[-47.11312,-21.1049],[-47.14226,-21.08821],[-47.13907,-21.06926],[-47.14607,-21.05903],[-47.14783,-21.03544],[-47.157,-21.01881],[-47.14371,-20.98237],[-47.14954,-20.96995],[-47.16451,-20.96604],[-47.16881,-20.95648],[-47.18125,-20.95379],[-47.19254,-20.94204],[-47.19001,-20.9282],[-47.21043,-20.92412],[-47.22454,-20.9116],[-47.24001,-20.88527],[-47.21445,-20.8272],[-47.22472,-20.80008],[-47.21383,-20.7923],[-47.20704,-20.77552],[-47.18879,-20.77061],[-47.18226,-20.74128],[-47.17516,-20.73925],[-47.18622,-20.73143],[-47.16948,-20.71768],[-47.17309,-20.7119],[-47.16557,-20.70147],[-47.14903,-20.7076],[-47.11527,-20.70719],[-47.11276,-20.69663],[-47.1012,-20.68315],[-47.09687,-20.64451],[-47.11265,-20.63807],[-47.1087,-20.62079],[-47.12329,-20.61271],[-47.12273,-20.59467],[-47.13237,-20.59077],[-47.14272,-20.56558],[-47.13762,-20.56109],[-47.14149,-20.541],[-47.15449,-20.51954],[-47.18476,-20.51369],[-47.20262,-20.50155],[-47.21146,-20.50228],[-47.22957,-20.48689],[-47.25357,-20.47794],[-47.25945,-20.46891],[-47.26984,-20.46652],[-47.29273,-20.44772],[-47.28645,-20.44244],[-47.28726,-20.43514],[-47.29607,-20.42724],[-47.28873,-20.42154],[-47.29342,-20.41864],[-47.28806,-20.41578],[-47.28542,-20.40573],[-47.29172,-20.39802],[-47.28721,-20.38791],[-47.29373,-20.38568],[-47.29059,-20.38321],[-47.2944,-20.38076],[-47.2925,-20.3703],[-47.29818,-20.34842],[-47.29026,-20.33372],[-47.28493,-20.33198],[-47.28579,-20.31627],[-47.2767,-20.29163],[-47.25284,-20.26363],[-47.24623,-20.26143],[-47.23104,-20.21914],[-47.25407,-20.19432],[-47.25701,-20.16619],[-47.26846,-20.15668],[-47.29297,-20.14865],[-47.30964,-20.12449],[-47.34751,-20.10533],[-47.35864,-20.10397],[-47.37454,-20.08365],[-47.40493,-20.08273],[-47.4182,-20.06463],[-47.44026,-20.04882],[-47.4442,-20.02795],[-47.42548,-20.01769],[-47.42509,-20.01333],[-47.45024,-19.98783],[-47.46826,-19.96141],[-47.49769,-19.97162],[-47.5085,-19.98293],[-47.54012,-19.98431],[-47.5526,-19.99602],[-47.5804,-19.99519],[-47.59236,-20.007],[-47.59471,-20.02588],[-47.61396,-20.0421],[-47.6249,-20.04228],[-47.63473,-20.04924],[-47.67059,-20.02251],[-47.67612,-20.0019],[-47.7042,-19.97989],[-47.71266,-19.97814],[-47.73365,-19.98792],[-47.75107,-19.99028],[-47.76555,-19.98571],[-47.80056,-19.98503],[-47.83674,-19.99593],[-47.85253,-19.98982],[-47.85972,-19.99293],[-47.8758,-20.0214],[-47.87142,-20.03964],[-47.85993,-20.04723],[-47.86032,-20.05417],[-47.86924,-20.06185],[-47.87914,-20.10472],[-47.89937,-20.12566],[-47.93407,-20.10784],[-47.94346,-20.09199],[-47.94845,-20.05575],[-47.97593,-20.03536],[-47.98452,-20.03738],[-47.99118,-20.04616],[-47.98971,-20.07295],[-48.00229,-20.10415],[-48.01982,-20.12014],[-48.03816,-20.11699],[-48.04935,-20.13722],[-48.07041,-20.1466],[-48.11296,-20.14375],[-48.12651,-20.13125],[-48.14769,-20.12413],[-48.15889,-20.10301],[-48.16771,-20.1038],[-48.17857,-20.09617],[-48.18243,-20.07462],[-48.20774,-20.03936],[-48.22362,-20.0293],[-48.24085,-20.02927],[-48.24762,-20.03577],[-48.2441,-20.04739],[-48.25339,-20.07791],[-48.21895,-20.11538],[-48.21771,-20.12528],[-48.22479,-20.1335],[-48.2413,-20.14017],[-48.26506,-20.14378],[-48.28339,-20.13883],[-48.29546,-20.124],[-48.3171,-20.11334],[-48.33941,-20.11418],[-48.35302,-20.12185],[-48.37891,-20.12227],[-48.40574,-20.1135],[-48.49108,-20.13811],[-48.55459,-20.13029],[-48.58218,-20.1322],[-48.6006,-20.1397],[-48.62676,-20.16008],[-48.64689,-20.16699],[-48.70707,-20.16021],[-48.7295,-20.15028],[-48.75369,-20.15336],[-48.7811,-20.16384],[-48.82571,-20.16195],[-48.85535,-20.18013],[-48.85672,-20.22687],[-48.87219,-20.24186],[-48.88507,-20.26644],[-48.88872,-20.29483],[-48.87563,-20.31499],[-48.87999,-20.34834],[-48.86702,-20.39885],[-48.87857,-20.42965],[-48.89982,-20.44132],[-48.96299,-20.40311],[-48.96886,-20.39373],[-48.96175,-20.26329],[-48.97198,-20.20778],[-48.98406,-20.17371],[-48.99221,-20.16537],[-49.03291,-20.15004],[-49.06744,-20.15473],[-49.08926,-20.21216],[-49.12068,-20.27052],[-49.17028,-20.30644],[-49.17252,-20.31252],[-49.18352,-20.31465],[-49.19184,-20.3076],[-49.22863,-20.30334],[-49.25965,-20.25875],[-49.26597,-20.22847],[-49.29921,-20.16706],[-49.3085,-20.10388],[-49.30842,-20.07755],[-49.29627,-20.01556],[-49.28388,-20.00476],[-49.26249,-20.00691],[-49.2483,-19.99963],[-49.24961,-19.96954],[-49.26513,-19.96203],[-49.2975,-19.96053],[-49.31158,-19.96481],[-49.33274,-19.9801],[-49.35645,-19.98671],[-49.44448,-19.9805],[-49.48753,-19.95526],[-49.50341,-19.91992],[-49.55144,-19.90583],[-49.55916,-19.9112],[-49.58314,-19.90998],[-49.63436,-19.93192],[-49.71211,-19.93125],[-49.78242,-19.92445],[-49.83523,-19.9333],[-49.85553,-19.94681],[-49.89117,-19.94357],[-49.96211,-19.92021],[-50.01215,-19.92671],[-50.03859,-19.91828],[-50.07948,-19.88597],[-50.1031,-19.87472],[-50.16047,-19.87837],[-50.20153,-19.86642],[-50.21561,-19.86664],[-50.24511,-19.87675],[-50.28559,-19.86781],[-50.31182,-19.87309],[-50.33739,-19.86947],[-50.35272,-19.86459],[-50.35703,-19.85457],[-50.41709,-19.80113],[-50.47188,-19.77965],[-50.49893,-19.79577],[-50.51717,-19.7964],[-50.54826,-19.81118],[-50.5745,-19.81449],[-50.6055,-19.85608],[-50.63614,-19.87505],[-50.65806,-19.90714],[-50.73308,-19.92943],[-50.78356,-19.93722],[-50.81729,-19.95832],[-50.85171,-19.97077],[-50.87283,-19.98958],[-50.90809,-19.99425],[-50.91186,-20.00307],[-50.93362,-20.01492],[-50.94944,-20.03269],[-50.96579,-20.03358],[-51.00043,-20.08537],[-51.01784,-20.04838],[-51.00599,-20.02529],[-51.00476,-19.99921],[-51.01861,-19.97361],[-51.02087,-19.95908],[-51.00245,-19.92478],[-50.99943,-19.90636],[-51.02023,-19.86479],[-51.01815,-19.83727],[-51.02265,-19.80749],[-51.0399,-19.77711],[-51.02786,-19.75657],[-51.04539,-19.73755],[-51.0459,-19.72904],[-51.03845,-19.71952],[-51.03653,-19.687],[-51.02157,-19.66001],[-51.01207,-19.65232],[-50.99042,-19.60539],[-50.98751,-19.5895],[-50.97787,-19.5825],[-50.96283,-19.58169],[-50.93753,-19.59226],[-50.92795,-19.58779],[-50.92309,-19.57605],[-50.93084,-19.54223],[-50.9629,-19.50057],[-50.96323,-19.48363],[-50.9494,-19.47104],[-50.93443,-19.46743],[-50.84213,-19.49914],[-50.82665,-19.48746],[-50.8249,-19.47503],[-50.829,-19.46703],[-50.86854,-19.43391],[-50.87587,-19.41991],[-50.87144,-19.40384],[-50.86059,-19.39208],[-50.83785,-19.34564],[-50.8294,-19.31047],[-50.81467,-19.28578],[-50.78873,-19.26268],[-50.7714,-19.25932],[-50.74509,-19.23323],[-50.74284,-19.1982],[-50.73343,-19.1858],[-50.67776,-19.17251],[-50.67248,-19.16369],[-50.67857,-19.14064],[-50.67436,-19.13619],[-50.65455,-19.13341],[-50.58498,-19.13738],[-50.57245,-19.12102],[-50.54335,-19.10592],[-50.4987,-19.03402],[-50.49503,-19.01286],[-50.50397,-19.00447],[-50.50001,-18.98115],[-50.51183,-18.95196],[-50.50878,-18.93573],[-50.46098,-18.91364],[-50.44146,-18.89078],[-50.41868,-18.82762],[-50.37853,-18.81464],[-50.32372,-18.7122],[-50.30622,-18.69547],[-50.25022,-18.67788],[-50.19883,-18.67907],[-50.16424,-18.66435],[-50.08,-18.67224],[-50.05016,-18.64354],[-50.03698,-18.60987],[-50.02872,-18.60146],[-50.01386,-18.59947],[-49.98141,-18.60464],[-49.97377,-18.61431],[-49.93161,-18.62399],[-49.90433,-18.6213],[-49.88393,-18.60903],[-49.87216,-18.61226],[-49.86672,-18.62329],[-49.85275,-18.62316],[-49.83611,-18.63668],[-49.81975,-18.63257],[-49.79471,-18.64385],[-49.78364,-18.64133],[-49.76849,-18.61098],[-49.75766,-18.6097],[-49.73822,-18.61692],[-49.69369,-18.59064],[-49.67174,-18.58924],[-49.64265,-18.60133],[-49.63499,-18.5921],[-49.65361,-18.57056],[-49.65325,-18.56382],[-49.64674,-18.55773],[-49.57521,-18.54232],[-49.55892,-18.54676],[-49.54752,-18.53962],[-49.54235,-18.52742],[-49.54794,-18.5078],[-49.54299,-18.49787],[-49.53387,-18.49251],[-49.49719,-18.4926],[-49.48572,-18.50943],[-49.48179,-18.56102],[-49.43236,-18.60674],[-49.41669,-18.63855],[-49.40858,-18.6448],[-49.39152,-18.6466],[-49.37871,-18.64234],[-49.36513,-18.61736],[-49.34319,-18.59801],[-49.32481,-18.56075],[-49.30294,-18.56643],[-49.29256,-18.564],[-49.28898,-18.54335],[-49.28216,-18.53419],[-49.24877,-18.52291],[-49.22838,-18.47985],[-49.19254,-18.44972],[-49.20073,-18.43195],[-49.21124,-18.4235],[-49.21182,-18.41765],[-49.20563,-18.41179],[-49.18583,-18.41642],[-49.15811,-18.41388],[-49.15454,-18.40275],[-49.12624,-18.3825],[-49.10877,-18.38384],[-49.11144,-18.40201],[-49.09685,-18.4037],[-49.09122,-18.41355],[-49.077,-18.41678],[-49.05372,-18.40257],[-49.04196,-18.3765],[-49.02959,-18.36882],[-49.00592,-18.37435],[-48.99596,-18.37094],[-48.99058,-18.35855],[-48.98146,-18.35637],[-48.98415,-18.34141],[-48.9766,-18.34173],[-48.9711,-18.33048],[-48.93673,-18.3062],[-48.91771,-18.30587],[-48.90707,-18.31634],[-48.88285,-18.31885],[-48.87271,-18.33284],[-48.83204,-18.34613],[-48.82798,-18.37525],[-48.81632,-18.37966],[-48.79824,-18.35855],[-48.78418,-18.35113],[-48.77015,-18.35561],[-48.7557,-18.34438],[-48.73057,-18.35327],[-48.70854,-18.34503],[-48.69771,-18.35016],[-48.68284,-18.34353],[-48.64713,-18.34389],[-48.63378,-18.32765],[-48.59723,-18.33481],[-48.56137,-18.32388],[-48.55371,-18.33139],[-48.5545,-18.34695],[-48.5472,-18.35176],[-48.53107,-18.35107],[-48.51561,-18.36641],[-48.49274,-18.35297],[-48.48477,-18.35363],[-48.48138,-18.36065],[-48.48687,-18.37195],[-48.47902,-18.38012],[-48.44562,-18.3553],[-48.43653,-18.3653],[-48.40568,-18.35634],[-48.40362,-18.37118],[-48.35357,-18.36607],[-48.31359,-18.38484],[-48.30449,-18.38023],[-48.3157,-18.37305],[-48.31491,-18.36415],[-48.28826,-18.34868],[-48.27904,-18.33153],[-48.26237,-18.33188],[-48.25536,-18.34399],[-48.22677,-18.34572],[-48.22666,-18.35789],[-48.22092,-18.36228],[-48.19593,-18.36419],[-48.17285,-18.37496],[-48.16132,-18.37223],[-48.14776,-18.40821],[-48.11782,-18.42499],[-48.09578,-18.42998],[-48.069,-18.4278],[-48.06137,-18.41305],[-48.05579,-18.41324],[-48.04801,-18.41696],[-48.03934,-18.43374],[-48.01357,-18.44469],[-48.0093,-18.45427],[-47.99787,-18.45459],[-47.98087,-18.44286],[-47.97601,-18.45261],[-47.97917,-18.47596],[-47.96492,-18.47735],[-47.96216,-18.49607],[-47.9549,-18.50028],[-47.95262,-18.49384],[-47.92951,-18.48784],[-47.9254,-18.47123],[-47.91424,-18.46658],[-47.8879,-18.47654],[-47.88554,-18.46851],[-47.87545,-18.47567],[-47.86321,-18.46974],[-47.86437,-18.46304],[-47.87362,-18.45915],[-47.86042,-18.44019],[-47.84942,-18.44132],[-47.83454,-18.45127],[-47.83081,-18.44349],[-47.837,-18.43583],[-47.83074,-18.42519],[-47.83115,-18.41405],[-47.81054,-18.40011],[-47.79751,-18.40691],[-47.79846,-18.41631],[-47.77898,-18.42413],[-47.75909,-18.41027],[-47.74945,-18.41255],[-47.74676,-18.40994],[-47.75684,-18.39566],[-47.74257,-18.37652],[-47.73326,-18.3759],[-47.74053,-18.36384],[-47.71682,-18.36209],[-47.71034,-18.37965],[-47.7042,-18.38007],[-47.694,-18.37497],[-47.68642,-18.35746],[-47.67067,-18.35747],[-47.65754,-18.3278],[-47.6469,-18.33031],[-47.64812,-18.3407],[-47.62615,-18.3343],[-47.62423,-18.32263],[-47.61123,-18.31539],[-47.63873,-18.28768],[-47.61898,-18.27171],[-47.62575,-18.25943],[-47.61453,-18.25088],[-47.6152,-18.2623],[-47.60726,-18.26389],[-47.60228,-18.25629],[-47.6074,-18.24694],[-47.59075,-18.2358],[-47.58176,-18.2351],[-47.58859,-18.22704],[-47.57645,-18.226],[-47.57092,-18.22032],[-47.56753,-18.20386],[-47.5577,-18.20804],[-47.54376,-18.19523],[-47.5362,-18.19487],[-47.54009,-18.21733],[-47.53915,-18.22776],[-47.5337,-18.23071],[-47.52746,-18.22624],[-47.53061,-18.21785],[-47.51798,-18.2106],[-47.51817,-18.19887],[-47.5052,-18.19226],[-47.49714,-18.1991],[-47.48986,-18.19243],[-47.4849,-18.19353],[-47.48808,-18.18678],[-47.48357,-18.18086],[-47.46392,-18.17736],[-47.4512,-18.15917],[-47.44451,-18.15893],[-47.43584,-18.16759],[-47.43001,-18.16581],[-47.42731,-18.1613],[-47.43533,-18.15198],[-47.42875,-18.13929],[-47.41832,-18.1407],[-47.41237,-18.14771],[-47.40819,-18.14199],[-47.39684,-18.14186],[-47.3965,-18.13738],[-47.40729,-18.13175],[-47.39579,-18.12715],[-47.39375,-18.11624],[-47.38606,-18.12121],[-47.35584,-18.10511],[-47.35468,-18.09682],[-47.36135,-18.09621],[-47.35776,-18.08502],[-47.34684,-18.08824],[-47.34339,-18.08081],[-47.32273,-18.06969],[-47.3024,-18.07374],[-47.30551,-18.0637],[-47.29242,-18.06406],[-47.28317,-18.05824],[-47.28396,-18.04095],[-47.28673,-18.04279],[-47.29331,-18.02962],[-47.30075,-18.02702],[-47.2957,-18.02659],[-47.29681,-18.00939],[-47.31151,-18.00606],[-47.31556,-17.99539],[-47.31914,-17.99604],[-47.32292,-17.9845],[-47.31392,-17.97704],[-47.31381,-17.96323],[-47.33364,-17.95153],[-47.33468,-17.93763],[-47.34056,-17.93741],[-47.33937,-17.92817],[-47.34476,-17.92088],[-47.33837,-17.91249],[-47.34417,-17.90897],[-47.34519,-17.89867],[-47.35703,-17.89779],[-47.3593,-17.88679],[-47.35367,-17.87093],[-47.3595,-17.86605],[-47.35629,-17.8606],[-47.36689,-17.83538],[-47.37297,-17.831],[-47.36462,-17.8245],[-47.36331,-17.81698],[-47.35201,-17.81514],[-47.35059,-17.81126],[-47.35797,-17.80535],[-47.34798,-17.79731],[-47.3542,-17.79374],[-47.35445,-17.78754],[-47.33268,-17.76662],[-47.34269,-17.74446],[-47.31781,-17.72664],[-47.31206,-17.71152],[-47.31365,-17.69902],[-47.29948,-17.69146],[-47.29832,-17.68401],[-47.28656,-17.68422],[-47.27031,-17.67529],[-47.28134,-17.65325],[-47.2787,-17.64423],[-47.26823,-17.63772],[-47.26576,-17.61045],[-47.28383,-17.57758],[-47.30659,-17.55846],[-47.32081,-17.53117],[-47.33311,-17.52345],[-47.35134,-17.52695],[-47.3745,-17.52392],[-47.38487,-17.51435],[-47.3986,-17.51222],[-47.45706,-17.5384],[-47.46778,-17.53306],[-47.47768,-17.51133],[-47.49245,-17.52644],[-47.49776,-17.52465],[-47.50353,-17.51551],[-47.5032,-17.48178],[-47.51203,-17.47379],[-47.51426,-17.46081],[-47.54115,-17.45431],[-47.54031,-17.44587],[-47.52729,-17.44037],[-47.52714,-17.42974],[-47.52139,-17.42388],[-47.52768,-17.42404],[-47.52984,-17.41384],[-47.53773,-17.40931],[-47.52363,-17.41246],[-47.53879,-17.3888],[-47.52839,-17.38861],[-47.53048,-17.37759],[-47.52526,-17.38343],[-47.5139,-17.37464],[-47.51395,-17.35621],[-47.52164,-17.35282],[-47.50511,-17.34052],[-47.51212,-17.33495],[-47.51118,-17.32558],[-47.50989,-17.33199],[-47.49859,-17.33583],[-47.48792,-17.34951],[-47.47319,-17.3447],[-47.46398,-17.35585],[-47.45651,-17.35083],[-47.46001,-17.34415],[-47.44153,-17.34839],[-47.45426,-17.3319],[-47.45031,-17.32406],[-47.43534,-17.31701],[-47.42415,-17.32403],[-47.42176,-17.32127],[-47.42933,-17.30804],[-47.42117,-17.30392],[-47.41951,-17.29236],[-47.42551,-17.28363],[-47.43273,-17.28349],[-47.43442,-17.27622],[-47.41781,-17.27047],[-47.4169,-17.26471],[-47.42287,-17.26057],[-47.40823,-17.25758],[-47.41103,-17.24924],[-47.40678,-17.24569],[-47.39888,-17.24265],[-47.38754,-17.24982],[-47.3819,-17.24336],[-47.38722,-17.23914],[-47.37898,-17.23628],[-47.38528,-17.22705],[-47.37857,-17.21998],[-47.37428,-17.22207],[-47.37594,-17.21716],[-47.36261,-17.22271],[-47.36081,-17.20462],[-47.35053,-17.2056],[-47.3502,-17.1965],[-47.36301,-17.1865],[-47.34014,-17.18739],[-47.35317,-17.18024],[-47.34845,-17.17623],[-47.35195,-17.1665],[-47.33387,-17.1653],[-47.32764,-17.14834],[-47.32365,-17.15563],[-47.31101,-17.14632],[-47.30734,-17.15902],[-47.30294,-17.15446],[-47.30414,-17.14693],[-47.29578,-17.13863],[-47.28267,-17.1441],[-47.28339,-17.13058],[-47.27631,-17.12741],[-47.28214,-17.12277],[-47.27589,-17.12309],[-47.27511,-17.11784],[-47.28192,-17.1149],[-47.27461,-17.1041],[-47.26711,-17.11366],[-47.26442,-17.09755],[-47.25931,-17.10076],[-47.2552,-17.0927],[-47.25497,-17.09829],[-47.24814,-17.09856],[-47.24769,-17.08177],[-47.23178,-17.08972],[-47.22228,-17.08553],[-47.23414,-17.08236],[-47.22884,-17.07904],[-47.22375,-17.08255],[-47.22376,-17.0757],[-47.20765,-17.08036],[-47.20783,-17.06686],[-47.19806,-17.07227],[-47.191,-17.06963],[-47.19622,-17.06664],[-47.19617,-17.06007],[-47.19025,-17.06171],[-47.18739,-17.0577],[-47.18206,-17.06396],[-47.17515,-17.05445],[-47.1817,-17.05283],[-47.18442,-17.03597],[-47.18028,-17.03508],[-47.16694,-17.0475],[-47.16842,-17.03915],[-47.16264,-17.04155],[-47.15963,-17.02874],[-47.15714,-17.03382],[-47.15501,-17.02632],[-47.15178,-17.03277],[-47.14681,-17.03126],[-47.14895,-17.02414],[-47.14436,-17.02519],[-47.13172,-17.01044],[-47.13276,-17.00534],[-47.14473,-17.00973],[-47.14014,-16.99718],[-47.15109,-16.99736],[-47.1315,-16.99155],[-47.1259,-16.98177],[-47.14412,-16.97108],[-47.1432,-16.96518],[-47.15831,-16.9647],[-47.15191,-16.9552],[-47.16656,-16.95264],[-47.15689,-16.94143],[-47.16928,-16.94025],[-47.17416,-16.93194],[-47.16004,-16.92061],[-47.17284,-16.9185],[-47.18089,-16.90234],[-47.19706,-16.91084],[-47.1934,-16.89749],[-47.20295,-16.8904],[-47.19314,-16.88316],[-47.20159,-16.88223],[-47.20087,-16.87538],[-47.20767,-16.87606],[-47.20931,-16.8655],[-47.19998,-16.86154],[-47.20593,-16.83987],[-47.19349,-16.82521],[-47.21287,-16.828],[-47.20742,-16.81987],[-47.22033,-16.80786],[-47.21564,-16.80213],[-47.21903,-16.79697],[-47.2172,-16.78007],[-47.23087,-16.77542],[-47.22339,-16.76183],[-47.23206,-16.76509],[-47.23595,-16.75539],[-47.23447,-16.74469],[-47.2265,-16.74169],[-47.23106,-16.73438],[-47.22161,-16.72631],[-47.22761,-16.71349],[-47.24151,-16.70453],[-47.2487,-16.70875],[-47.25145,-16.70551],[-47.24567,-16.70098],[-47.2457,-16.68562],[-47.24759,-16.68208],[-47.25519,-16.68676],[-47.25892,-16.67898],[-47.24837,-16.67515],[-47.25076,-16.66601],[-47.25978,-16.6678],[-47.25381,-16.66367],[-47.25818,-16.65562],[-47.26387,-16.6623],[-47.2772,-16.66006],[-47.27828,-16.64822],[-47.28698,-16.64443],[-47.28357,-16.63977],[-47.28648,-16.63407],[-47.29406,-16.63677],[-47.29803,-16.62565],[-47.30707,-16.63212],[-47.30443,-16.62409],[-47.31624,-16.61661],[-47.32123,-16.61868],[-47.31593,-16.60691],[-47.3185,-16.60357],[-47.33431,-16.61714],[-47.33792,-16.61167],[-47.3329,-16.60719],[-47.33845,-16.60384],[-47.33692,-16.59798],[-47.34477,-16.59546],[-47.34157,-16.59316],[-47.35684,-16.58874],[-47.36694,-16.6011],[-47.37664,-16.60088],[-47.37648,-16.58024],[-47.38775,-16.57931],[-47.38686,-16.58887],[-47.39639,-16.58],[-47.39398,-16.57414],[-47.41284,-16.57587],[-47.40913,-16.56683],[-47.41233,-16.5585],[-47.40504,-16.5565],[-47.41348,-16.54813],[-47.42053,-16.5518],[-47.42634,-16.54834],[-47.429,-16.55239],[-47.434,-16.54486],[-47.43051,-16.54118],[-47.44437,-16.54077],[-47.44209,-16.52921],[-47.46003,-16.5051],[-47.45295,-16.49069],[-47.45612,-16.48741],[-47.45379,-16.4656],[-47.4479,-16.46471],[-47.44542,-16.45092],[-47.42949,-16.44267],[-47.42359,-16.42022],[-47.42714,-16.39417],[-47.41929,-16.39087],[-47.41909,-16.38389],[-47.40358,-16.37583],[-47.36624,-16.33151],[-47.35294,-16.30661],[-47.35617,-16.29378],[-47.34762,-16.28727],[-47.35082,-16.27475],[-47.33487,-16.25808],[-47.3338,-16.24853],[-47.32796,-16.24923],[-47.32243,-16.23132],[-47.33016,-16.21436],[-47.32314,-16.20964],[-47.33629,-16.2016],[-47.32993,-16.19591],[-47.32992,-16.18496],[-47.34048,-16.18526],[-47.33137,-16.17959],[-47.33192,-16.17175],[-47.34498,-16.16407],[-47.34039,-16.15695],[-47.34859,-16.15511],[-47.34092,-16.14811],[-47.35034,-16.14814],[-47.34749,-16.14057],[-47.3527,-16.13284],[-47.33773,-16.12849],[-47.34145,-16.12177],[-47.33184,-16.10748],[-47.33154,-16.09431],[-47.33711,-16.0936],[-47.3331,-16.08589],[-47.32927,-16.09044],[-47.32352,-16.08463],[-47.3222,-16.09088],[-47.31131,-16.08814],[-47.31041,-16.08228],[-47.31663,-16.07964],[-47.30817,-16.07885],[-47.30819,-16.07483],[-47.31572,-16.06734],[-47.3035,-16.06018],[-47.31109,-16.03316],[-47.29937,-16.0262],[-47.30047,-16.01706],[-47.28881,-16.01595],[-47.28771,-16.00968],[-47.28101,-16.01171],[-47.2765,-16.00617],[-47.27726,-16.01206],[-47.25404,-16.0192],[-47.23852,-16.01353],[-47.21949,-16.01425],[-47.21676,-16.00507],[-47.20773,-15.99738],[-47.20777,-15.98747],[-47.19799,-15.98725],[-47.19523,-15.98144],[-47.18508,-15.98291],[-47.18671,-15.97871],[-47.18286,-15.97715],[-47.1869,-15.97132],[-47.1811,-15.97076],[-47.17822,-15.97731],[-47.17022,-15.97321],[-47.16475,-15.96468],[-47.16866,-15.96446],[-47.1695,-15.95397],[-47.16253,-15.94388],[-47.1585,-15.94564],[-47.16048,-15.94252],[-47.1489,-15.94041],[-47.1513,-15.935],[-47.14577,-15.9323],[-47.1424,-15.9355],[-47.14192,-15.92665],[-47.13148,-15.93426],[-47.13453,-15.9502],[-47.12562,-15.9438],[-47.10972,-15.95648],[-47.08905,-15.96173],[-47.05276,-15.93792],[-47.02044,-15.92884],[-46.82483,-15.88573],[-46.81169,-15.8861],[-46.80609,-15.87201],[-46.80547,-15.85941],[-46.82319,-15.82464],[-46.82392,-15.80895],[-46.81312,-15.78722],[-46.82738,-15.74759],[-46.82711,-15.72998],[-46.84242,-15.71468],[-46.85567,-15.68314],[-46.85256,-15.65304],[-46.85898,-15.63965],[-46.85485,-15.61831],[-46.88254,-15.6101],[-46.89703,-15.59319],[-46.91949,-15.58882],[-46.94865,-15.55786],[-46.94418,-15.5182],[-46.9324,-15.48318],[-46.92928,-15.43995],[-46.91509,-15.41485],[-46.84945,-15.37318],[-46.85069,-15.36853],[-46.86945,-15.36149],[-46.86092,-15.35097],[-46.84792,-15.34677],[-46.83586,-15.32655],[-46.87367,-15.28542],[-46.88928,-15.28226],[-46.89145,-15.23527],[-46.90631,-15.23663],[-46.9128,-15.24687],[-46.92762,-15.25511],[-46.94083,-15.23071],[-46.93345,-15.2235],[-46.93731,-15.20503],[-46.88897,-15.11113],[-46.89698,-15.1031],[-46.89773,-15.09423],[-46.926,-15.07358],[-46.92503,-15.05752],[-46.91802,-15.04903],[-46.86414,-15.0204],[-46.85687,-15.01028],[-46.82984,-15.00928],[-46.78182,-15.01933],[-46.75323,-15.03276],[-46.73259,-15.03619],[-46.68164,-15.05863],[-46.65637,-15.08152],[-46.64099,-15.0876],[-46.62541,-15.08953],[-46.61058,-15.08402],[-46.60028,-15.08783],[-46.58797,-15.08114],[-46.57528,-15.08365],[-46.55129,-15.06389],[-46.54455,-15.06528],[-46.53197,-15.05641],[-46.51384,-15.06132],[-46.50257,-15.05227],[-46.52064,-15.01375],[-46.53078,-15.00529],[-46.52727,-14.98817],[-46.51673,-14.98203],[-46.51726,-14.97288],[-46.54081,-14.95162],[-46.53933,-14.94134],[-46.5465,-14.92546],[-46.54231,-14.89604],[-46.53039,-14.88373],[-46.52152,-14.85119],[-46.53386,-14.82829],[-46.55847,-14.82217],[-46.55768,-14.80701],[-46.56586,-14.78639],[-46.5432,-14.76869],[-46.54416,-14.75303],[-46.51025,-14.73828],[-46.50969,-14.71609],[-46.50341,-14.70409],[-46.48998,-14.71001],[-46.47653,-14.70511],[-46.469,-14.70823],[-46.46311,-14.73119],[-46.44733,-14.73169],[-46.4296,-14.75272],[-46.4045,-14.76035],[-46.36575,-14.79542],[-46.35498,-14.79422],[-46.33636,-14.8033],[-46.33431,-14.81222],[-46.32217,-14.8146],[-46.32023,-14.83632],[-46.32489,-14.8478],[-46.30044,-14.8581],[-46.30886,-14.87758],[-46.31814,-14.88327],[-46.31931,-14.90046],[-46.30608,-14.91157],[-46.29464,-14.90863],[-46.28683,-14.92816],[-46.25698,-14.92893],[-46.24736,-14.92236],[-46.23367,-14.92154],[-46.22444,-14.94175],[-46.2157,-14.94354],[-46.21127,-14.93698],[-46.20578,-14.93718],[-46.17552,-14.94944],[-46.16152,-14.93106],[-46.16638,-14.90847],[-46.16139,-14.90619],[-46.15944,-14.91382],[-46.14572,-14.92653],[-46.13872,-14.92851],[-46.1323,-14.92139],[-46.12027,-14.92008],[-46.11036,-14.93703],[-46.09819,-14.939],[-46.08481,-14.93204],[-46.07949,-14.90501],[-46.06231,-14.90801],[-46.0521,-14.88411],[-46.03755,-14.87467],[-46.02125,-14.8838],[-46.00385,-14.90231],[-46.00729,-14.92586],[-45.99581,-14.92749],[-45.98694,-14.94108],[-45.97172,-14.94914],[-45.96605,-14.96566],[-45.9697,-14.99236],[-45.97849,-14.9986],[-45.97484,-15.00469],[-45.97547,-15.0389],[-46.01847,-15.08132],[-46.0195,-15.09305],[-46.02803,-15.10224],[-46.02845,-15.11413],[-46.04369,-15.11815],[-46.05044,-15.13301],[-46.04342,-15.14619],[-46.05425,-15.17199],[-46.07869,-15.17552],[-46.08064,-15.18211],[-46.0928,-15.18519],[-46.09766,-15.19263],[-46.11922,-15.19224],[-46.11889,-15.20209],[-46.09879,-15.2168],[-46.09908,-15.23829],[-46.09233,-15.24793],[-46.08122,-15.24853],[-46.07705,-15.2647],[-46.05808,-15.26276],[-46.0526,-15.25921],[-46.05553,-15.25059],[-46.05088,-15.24161],[-46.03853,-15.23093],[-46.0395,-15.21735],[-46.03205,-15.21396],[-46.02717,-15.20024],[-46.01042,-15.19584],[-45.99436,-15.20061],[-45.99305,-15.19588],[-45.98448,-15.19598],[-45.97683,-15.17761],[-45.97955,-15.1744],[-45.97239,-15.1702],[-45.97244,-15.15473],[-45.95372,-15.13955],[-45.9187,-15.13339],[-45.87346,-15.15814],[-45.85764,-15.14885],[-45.85881,-15.1444],[-45.84431,-15.14527],[-45.8343,-15.13668],[-45.82666,-15.11697],[-45.81164,-15.11286],[-45.80169,-15.11908],[-45.78925,-15.11275],[-45.75108,-15.1226],[-45.7216,-15.11225],[-45.72394,-15.10429],[-45.71591,-15.1037],[-45.71701,-15.09393],[-45.71293,-15.09782],[-45.70091,-15.09043],[-45.69715,-15.09298],[-45.69386,-15.08423],[-45.6858,-15.08686],[-45.67479,-15.08056],[-45.65579,-15.04855],[-45.6604,-15.0383],[-45.65549,-15.02582],[-45.64731,-15.02343],[-45.64615,-15.03208],[-45.64397,-15.01733],[-45.63958,-15.02351],[-45.62326,-15.02028],[-45.60853,-14.99665],[-45.60097,-14.99628],[-45.60269,-14.98955],[-45.5945,-14.98425],[-45.59346,-14.97552],[-45.58675,-14.97818],[-45.58839,-14.97374],[-45.56702,-14.95652],[-45.56754,-14.94585],[-45.5347,-14.93828],[-45.52067,-14.95358],[-45.49847,-14.9464],[-45.49003,-14.96078],[-45.46983,-14.95008],[-45.45511,-14.95374],[-45.44906,-14.94268],[-45.45119,-14.93874],[-45.44247,-14.93527],[-45.42913,-14.91975],[-45.42102,-14.92661],[-45.39977,-14.91752],[-45.38111,-14.89783],[-45.37072,-14.89415],[-45.37207,-14.88097],[-45.36395,-14.87172],[-45.35192,-14.8761],[-45.35285,-14.86413],[-45.31802,-14.85259],[-45.31141,-14.84112],[-45.31713,-14.83202],[-45.31014,-14.83671],[-45.29544,-14.82738],[-45.28566,-14.8325],[-45.28872,-14.81813],[-45.27439,-14.81152],[-45.27116,-14.79884],[-45.26307,-14.80223],[-45.25869,-14.78954],[-45.24741,-14.78363],[-45.24194,-14.78655],[-45.22924,-14.76575],[-45.20555,-14.74476],[-45.19128,-14.74973],[-45.18958,-14.74247],[-45.18188,-14.7446],[-45.16358,-14.73241],[-45.16644,-14.73532],[-45.15686,-14.74081],[-45.13994,-14.74299],[-45.13627,-14.74744],[-45.12655,-14.74542],[-45.09583,-14.75302],[-45.08275,-14.74879],[-45.06236,-14.72498],[-45.0541,-14.69948],[-45.04679,-14.68975],[-45.04498,-14.69597],[-45.03914,-14.69011],[-45.0403,-14.68051],[-44.99573,-14.66784],[-44.99662,-14.65887],[-44.98591,-14.66216],[-44.98336,-14.65187],[-44.97392,-14.65213],[-44.98058,-14.64353],[-44.96058,-14.63175],[-44.95477,-14.63789],[-44.95477,-14.63403],[-44.943,-14.63024],[-44.94657,-14.62375],[-44.94133,-14.62771],[-44.91666,-14.61968],[-44.91699,-14.61469],[-44.90796,-14.61341],[-44.91019,-14.60357],[-44.89646,-14.60548],[-44.891,-14.59768],[-44.87655,-14.59209],[-44.87594,-14.59969],[-44.86196,-14.57923],[-44.84337,-14.58086],[-44.84389,-14.56634],[-44.84752,-14.57551],[-44.85008,-14.57117],[-44.85877,-14.57155],[-44.84691,-14.55805],[-44.84709,-14.54551],[-44.83988,-14.54038],[-44.82433,-14.5394],[-44.82641,-14.53421],[-44.83487,-14.53595],[-44.83177,-14.52717],[-44.83627,-14.51851],[-44.82402,-14.5182],[-44.83547,-14.50461],[-44.83322,-14.49985],[-44.81379,-14.50469],[-44.80919,-14.49788],[-44.81825,-14.49022],[-44.7943,-14.49662],[-44.79435,-14.48788],[-44.78755,-14.4889],[-44.76935,-14.47736],[-44.75672,-14.47841],[-44.748,-14.46344],[-44.74341,-14.4677],[-44.72564,-14.45768],[-44.7238,-14.44908],[-44.71905,-14.45104],[-44.71286,-14.44399],[-44.70127,-14.44981],[-44.69819,-14.43207],[-44.6931,-14.43265],[-44.69422,-14.42351],[-44.68783,-14.42157],[-44.68833,-14.41671],[-44.67419,-14.42452],[-44.66955,-14.41622],[-44.66797,-14.42388],[-44.65802,-14.41639],[-44.66336,-14.40775],[-44.65886,-14.39578],[-44.65243,-14.3936],[-44.6458,-14.39812],[-44.63807,-14.39022],[-44.63358,-14.3945],[-44.62558,-14.37614],[-44.61658,-14.37516],[-44.61072,-14.36547],[-44.59736,-14.36794],[-44.58705,-14.35444],[-44.57746,-14.35388],[-44.57227,-14.3456],[-44.56455,-14.34863],[-44.56555,-14.34009],[-44.55718,-14.33706],[-44.5451,-14.34309],[-44.54053,-14.3318],[-44.51888,-14.33024],[-44.51083,-14.32272],[-44.48716,-14.32855],[-44.47316,-14.31729],[-44.47497,-14.31438],[-44.45361,-14.31201],[-44.43988,-14.30369],[-44.43068,-14.28955],[-44.39943,-14.27831],[-44.39714,-14.27351],[-44.3895,-14.28051],[-44.37846,-14.27718],[-44.37849,-14.27045],[-44.37364,-14.27468],[-44.36157,-14.27284],[-44.35288,-14.26621],[-44.35302,-14.26095],[-44.34602,-14.26329],[-44.35182,-14.25774],[-44.34019,-14.25671],[-44.34058,-14.24943],[-44.31647,-14.24038],[-44.30232,-14.25327],[-44.28435,-14.24768],[-44.27657,-14.25247],[-44.2686,-14.24663],[-44.25441,-14.25209],[-44.24749,-14.26015],[-44.24442,-14.25713],[-44.24747,-14.25166],[-44.23869,-14.25804],[-44.23963,-14.24852],[-44.23505,-14.24698],[-44.2406,-14.24072],[-44.21804,-14.24501],[-44.21532,-14.23321],[-44.20903,-14.23726]]]}}